start=new Date('2022-04-05T00:00:00.000Z').valueOf();
sats=[{"REF_FRAME":"TEME","MEAN_MOTION_DOT":"0.00001725","PERIOD":"95.594","DECAY_DATE":null,"SEMIMAJOR_AXIS":"6925.436","MEAN_MOTION_DDOT":"0.0000000000000","SITE":"AFETR","EPHEMERIS_TYPE":"0","LAUNCH_DATE":"2021-03-11","REV_AT_EPOCH":"6055","ECCENTRICITY":"0.00016350","RA_OF_ASC_NODE":"199.0374","APOAPSIS":"548.433","MEAN_ELEMENT_THEORY":"SGP4","CENTER_NAME":"EARTH","RCS_SIZE":"LARGE","OBJECT_TYPE":"PAYLOAD","PERIAPSIS":"546.168","OBJECT_NAME":"STARLINK-2420","TLE_LINE1":"1 47831U 21018AW  22094.58726605  .00001725  00000-0  13477-3 0  9991","COUNTRY_CODE":"US","GP_ID":"200424312","TLE_LINE2":"2 47831  53.0597 199.0374 0001635  57.7446 302.3701 15.06371556 60556","BSTAR":"0.00013477000000","EPOCH":"2022-04-04T14:05:39.786720","OBJECT_ID":"2021-018AW","CLASSIFICATION_TYPE":"U","ELEMENT_SET_NO":"999","MEAN_ANOMALY":"302.3701","INCLINATION":"53.0597","MEAN_MOTION":"15.06371556","TIME_SYSTEM":"UTC","NORAD_CAT_ID":"47831","FILE":"3387897","ARG_OF_PERICENTER":"57.7446"},{"MEAN_MOTION":"15.06400402","TIME_SYSTEM":"UTC","FILE":"3388193","NORAD_CAT_ID":"47832","ARG_OF_PERICENTER":"70.6408","TLE_LINE2":"2 47832  53.0534 213.0578 0001472  70.6408 289.4740 15.06400402 59999","COUNTRY_CODE":"US","TLE_LINE1":"1 47832U 21018AX  22094.80887189  .00016894  00000-0  11503-2 0  9992","GP_ID":"200434296","OBJECT_ID":"2021-018AX","EPOCH":"2022-04-04T19:24:46.531296","BSTAR":"0.00115030000000","MEAN_ANOMALY":"289.4740","INCLINATION":"53.0534","ELEMENT_SET_NO":"999","CLASSIFICATION_TYPE":"U","APOAPSIS":"548.232","MEAN_ELEMENT_THEORY":"SGP4","OBJECT_TYPE":"PAYLOAD","RCS_SIZE":"LARGE","CENTER_NAME":"EARTH","OBJECT_NAME":"STARLINK-2422","PERIAPSIS":"546.193","REF_FRAME":"TEME","DECAY_DATE":null,"SEMIMAJOR_AXIS":"6925.347","PERIOD":"95.592","MEAN_MOTION_DOT":"0.00016894","SITE":"AFETR","EPHEMERIS_TYPE":"0","MEAN_MOTION_DDOT":"0.0000000000000","ECCENTRICITY":"0.00014720","RA_OF_ASC_NODE":"213.0578","REV_AT_EPOCH":"5999","LAUNCH_DATE":"2021-03-11"},{"GP_ID":"200425308","TLE_LINE1":"1 47833U 21018AY  22094.56927588  .00006721  00000-0  46982-3 0  9992","COUNTRY_CODE":"US","TLE_LINE2":"2 47833  53.0538 214.1375 0001588  58.3293 301.7851 15.06388889 60340","BSTAR":"0.00046982000000","EPOCH":"2022-04-04T13:39:45.436032","OBJECT_ID":"2021-018AY","CLASSIFICATION_TYPE":"U","ELEMENT_SET_NO":"999","MEAN_ANOMALY":"301.7851","INCLINATION":"53.0538","MEAN_MOTION":"15.06388889","TIME_SYSTEM":"UTC","NORAD_CAT_ID":"47833","FILE":"3387897","ARG_OF_PERICENTER":"58.3293","REF_FRAME":"TEME","MEAN_MOTION_DOT":"0.00006721","PERIOD":"95.593","DECAY_DATE":null,"SEMIMAJOR_AXIS":"6925.383","MEAN_MOTION_DDOT":"0.0000000000000","EPHEMERIS_TYPE":"0","SITE":"AFETR","LAUNCH_DATE":"2021-03-11","REV_AT_EPOCH":"6034","ECCENTRICITY":"0.00015880","RA_OF_ASC_NODE":"214.1375","APOAPSIS":"548.347","MEAN_ELEMENT_THEORY":"SGP4","CENTER_NAME":"EARTH","RCS_SIZE":"LARGE","OBJECT_TYPE":"PAYLOAD","PERIAPSIS":"546.148","OBJECT_NAME":"STARLINK-2423"},{"OBJECT_ID":"2021-018AZ","EPOCH":"2022-04-04T13:55:41.158272","BSTAR":"0.00012989000000","MEAN_ANOMALY":"300.0932","INCLINATION":"53.0533","CLASSIFICATION_TYPE":"U","ELEMENT_SET_NO":"999","TLE_LINE2":"2 47834  53.0533 214.0806 0001563  60.0212 300.0932 15.06378227 60345","TLE_LINE1":"1 47834U 21018AZ  22094.58033748  .00001653  00000-0  12989-3 0  9990","COUNTRY_CODE":"US","GP_ID":"200426044","FILE":"3387897","NORAD_CAT_ID":"47834","ARG_OF_PERICENTER":"60.0212","MEAN_MOTION":"15.06378227","TIME_SYSTEM":"UTC","SITE":"AFETR","EPHEMERIS_TYPE":"0","MEAN_MOTION_DDOT":"0.0000000000000","ECCENTRICITY":"0.00015630","RA_OF_ASC_NODE":"214.0806","REV_AT_EPOCH":"6034","LAUNCH_DATE":"2021-03-11","REF_FRAME":"TEME","DECAY_DATE":null,"SEMIMAJOR_AXIS":"6925.415","PERIOD":"95.594","MEAN_MOTION_DOT":"0.00001653","OBJECT_TYPE":"PAYLOAD","RCS_SIZE":"LARGE","CENTER_NAME":"EARTH","OBJECT_NAME":"STARLINK-2424","PERIAPSIS":"546.198","APOAPSIS":"548.363","MEAN_ELEMENT_THEORY":"SGP4"},{"TIME_SYSTEM":"UTC","MEAN_MOTION":"15.06386103","ARG_OF_PERICENTER":"61.2632","NORAD_CAT_ID":"47835","FILE":"3388007","TLE_LINE1":"1 47835U 21018BA  22094.79457013  .00005712  00000-0  40219-3 0  9996","GP_ID":"200430216","COUNTRY_CODE":"US","TLE_LINE2":"2 47835  53.0526 218.1092 0001752  61.2632 298.8533 15.06386103 59913","CLASSIFICATION_TYPE":"U","ELEMENT_SET_NO":"999","INCLINATION":"53.0526","MEAN_ANOMALY":"298.8533","BSTAR":"0.00040219000000","EPOCH":"2022-04-04T19:04:10.859232","OBJECT_ID":"2021-018BA","MEAN_ELEMENT_THEORY":"SGP4","APOAPSIS":"548.469","PERIAPSIS":"546.043","OBJECT_NAME":"STARLINK-2425","CENTER_NAME":"EARTH","RCS_SIZE":"LARGE","OBJECT_TYPE":"PAYLOAD","MEAN_MOTION_DOT":"0.00005712","PERIOD":"95.593","DECAY_DATE":null,"SEMIMAJOR_AXIS":"6925.391","REF_FRAME":"TEME","LAUNCH_DATE":"2021-03-11","REV_AT_EPOCH":"5991","ECCENTRICITY":"0.00017520","RA_OF_ASC_NODE":"218.1092","MEAN_MOTION_DDOT":"0.0000000000000","SITE":"AFETR","EPHEMERIS_TYPE":"0"},{"CENTER_NAME":"EARTH","RCS_SIZE":"LARGE","OBJECT_TYPE":"PAYLOAD","PERIAPSIS":"546.029","OBJECT_NAME":"STARLINK-2426","APOAPSIS":"548.433","MEAN_ELEMENT_THEORY":"SGP4","MEAN_MOTION_DDOT":"0.0000000000000","SITE":"AFETR","EPHEMERIS_TYPE":"0","LAUNCH_DATE":"2021-03-11","REV_AT_EPOCH":"5997","ECCENTRICITY":"0.00017360","RA_OF_ASC_NODE":"213.4408","REF_FRAME":"TEME","MEAN_MOTION_DOT":"0.00007842","PERIOD":"95.593","DECAY_DATE":null,"SEMIMAJOR_AXIS":"6925.366","NORAD_CAT_ID":"47836","FILE":"3388193","ARG_OF_PERICENTER":"64.4470","MEAN_MOTION":"15.06394285","TIME_SYSTEM":"UTC","BSTAR":"0.00054487000000","EPOCH":"2022-04-04T17:21:19.747872","OBJECT_ID":"2021-018BB","ELEMENT_SET_NO":"999","CLASSIFICATION_TYPE":"U","MEAN_ANOMALY":"295.6698","INCLINATION":"53.0541","COUNTRY_CODE":"US","TLE_LINE1":"1 47836U 21018BB  22094.72314523  .00007842  00000-0  54487-3 0  9996","GP_ID":"200433856","TLE_LINE2":"2 47836  53.0541 213.4408 0001736  64.4470 295.6698 15.06394285 59970"},{"INCLINATION":"53.0529","MEAN_ANOMALY":"307.9827","CLASSIFICATION_TYPE":"U","ELEMENT_SET_NO":"999","OBJECT_ID":"2021-018BC","EPOCH":"2022-04-04T17:46:36.190560","BSTAR":"0.00068718000000","TLE_LINE2":"2 47837  53.0529 193.3651 0002017  52.1344 307.9827 15.06377630 60260","TLE_LINE1":"1 47837U 21018BC  22094.74069665  .00009963  00000-0  68718-3 0  9991","COUNTRY_CODE":"US","GP_ID":"200433850","ARG_OF_PERICENTER":"52.1344","FILE":"3388201","NORAD_CAT_ID":"47837","TIME_SYSTEM":"UTC","MEAN_MOTION":"15.06377630","RA_OF_ASC_NODE":"193.3651","ECCENTRICITY":"0.00020170","REV_AT_EPOCH":"6026","LAUNCH_DATE":"2021-03-11","SITE":"AFETR","EPHEMERIS_TYPE":"0","MEAN_MOTION_DDOT":"0.0000000000000","DECAY_DATE":null,"SEMIMAJOR_AXIS":"6925.417","PERIOD":"95.594","MEAN_MOTION_DOT":"0.00009963","REF_FRAME":"TEME","OBJECT_NAME":"STARLINK-2427","PERIAPSIS":"545.885","OBJECT_TYPE":"PAYLOAD","RCS_SIZE":"LARGE","CENTER_NAME":"EARTH","MEAN_ELEMENT_THEORY":"SGP4","APOAPSIS":"548.679"},{"MEAN_MOTION_DDOT":"0.0000000000000","EPHEMERIS_TYPE":"0","SITE":"AFETR","LAUNCH_DATE":"2021-03-11","ECCENTRICITY":"0.00017870","RA_OF_ASC_NODE":"213.8958","REV_AT_EPOCH":"5996","REF_FRAME":"TEME","PERIOD":"95.593","MEAN_MOTION_DOT":"0.00002294","DECAY_DATE":null,"SEMIMAJOR_AXIS":"6925.409","RCS_SIZE":"LARGE","CENTER_NAME":"EARTH","OBJECT_TYPE":"PAYLOAD","PERIAPSIS":"546.036","OBJECT_NAME":"STARLINK-2429","APOAPSIS":"548.511","MEAN_ELEMENT_THEORY":"SGP4","BSTAR":"0.00017295000000","OBJECT_ID":"2021-018BD","EPOCH":"2022-04-04T14:54:05.137920","ELEMENT_SET_NO":"999","CLASSIFICATION_TYPE":"U","MEAN_ANOMALY":"280.5337","INCLINATION":"53.0547","TLE_LINE2":"2 47838  53.0547 213.8958 0001787  79.5854 280.5337 15.06380412 59960","TLE_LINE1":"1 47838U 21018BD  22094.62089280  .00002294  00000-0  17295-3 0  9998","COUNTRY_CODE":"US","GP_ID":"200431042","NORAD_CAT_ID":"47838","FILE":"3388042","ARG_OF_PERICENTER":"79.5854","MEAN_MOTION":"15.06380412","TIME_SYSTEM":"UTC"},{"TIME_SYSTEM":"UTC","MEAN_MOTION":"15.06384705","ARG_OF_PERICENTER":"87.3421","FILE":"3387897","NORAD_CAT_ID":"47839","TLE_LINE2":"2 47839  53.0543 184.3487 0001493  87.3421 272.7739 15.06384705 60710","GP_ID":"200424313","TLE_LINE1":"1 47839U 21018BE  22094.51675424  .00002847  00000-0  21002-3 0  9993","COUNTRY_CODE":"US","MEAN_ANOMALY":"272.7739","INCLINATION":"53.0543","CLASSIFICATION_TYPE":"U","ELEMENT_SET_NO":"999","OBJECT_ID":"2021-018BE","EPOCH":"2022-04-04T12:24:07.566336","BSTAR":"0.00021002000000","MEAN_ELEMENT_THEORY":"SGP4","APOAPSIS":"548.294","OBJECT_NAME":"STARLINK-2431","PERIAPSIS":"546.226","OBJECT_TYPE":"PAYLOAD","RCS_SIZE":"LARGE","CENTER_NAME":"EARTH","DECAY_DATE":null,"SEMIMAJOR_AXIS":"6925.395","PERIOD":"95.593","MEAN_MOTION_DOT":"0.00002847","REF_FRAME":"TEME","RA_OF_ASC_NODE":"184.3487","ECCENTRICITY":"0.00014930","REV_AT_EPOCH":"6071","LAUNCH_DATE":"2021-03-11","EPHEMERIS_TYPE":"0","SITE":"AFETR","MEAN_MOTION_DDOT":"0.0000000000000"},{"ARG_OF_PERICENTER":"50.1683","NORAD_CAT_ID":"47840","FILE":"3387897","TIME_SYSTEM":"UTC","MEAN_MOTION":"15.06380060","CLASSIFICATION_TYPE":"U","ELEMENT_SET_NO":"999","INCLINATION":"53.0541","MEAN_ANOMALY":"309.9436","BSTAR":"0.00026854000000","EPOCH":"2022-04-04T12:38:44.359584","OBJECT_ID":"2021-018BF","COUNTRY_CODE":"US","TLE_LINE1":"1 47840U 21018BF  22094.52690231  .00003719  00000-0  26854-3 0  9998","GP_ID":"200425062","TLE_LINE2":"2 47840  53.0541 194.3148 0001483  50.1683 309.9436 15.06380060 60562","PERIAPSIS":"546.248","OBJECT_NAME":"STARLINK-2432","CENTER_NAME":"EARTH","RCS_SIZE":"LARGE","OBJECT_TYPE":"PAYLOAD","MEAN_ELEMENT_THEORY":"SGP4","APOAPSIS":"548.302","LAUNCH_DATE":"2021-03-11","REV_AT_EPOCH":"6056","ECCENTRICITY":"0.00014830","RA_OF_ASC_NODE":"194.3148","MEAN_MOTION_DDOT":"0.0000000000000","EPHEMERIS_TYPE":"0","SITE":"AFETR","MEAN_MOTION_DOT":"0.00003719","PERIOD":"95.593","SEMIMAJOR_AXIS":"6925.410","DECAY_DATE":null,"REF_FRAME":"TEME"}];
